SZ-21 DEB               
1 66515U 25246C   25323.90102569  .00023071  00000+0  27014-3 0  9998
2 66515  41.4749 155.2061 0004582  95.9418 264.1943 15.60985680   871
