CCSDS_OMM_VERS = 2.0
CREATION_DATE  = 
ORIGINATOR     = 

OBJECT_NAME    = SZ-21 DEB
OBJECT_ID      = 2025-246C
CENTER_NAME    = EARTH
REF_FRAME      = TEME
TIME_SYSTEM    = UTC
MEAN_ELEMENT_THEORY = SGP/SGP4

EPOCH          = 2025-11-19T21:37:28.619616
MEAN_MOTION    = 15.60985680
ECCENTRICITY   = .00045827
INCLINATION    = 41.4749
RA_OF_ASC_NODE = 155.2061
ARG_OF_PERICENTER = 95.9418
MEAN_ANOMALY   = 264.1943

EPHEMERIS_TYPE = 0
CLASSIFICATION_TYPE = U
NORAD_CAT_ID   = 66515
ELEMENT_SET_NO = 999
REV_AT_EPOCH   = 87
BSTAR          = .27014058E-3
MEAN_MOTION_DOT = .23071E-3
MEAN_MOTION_DDOT = 0

